{"fetched_at":"2026-03-30T13:17:50Z","count":15418,"tles":[{"name":"STARLINK-35917","line1":"1 66503U 25263U   26087.82411589  .00030391  00000+0  11080-2 0  9996","line2":"2 66503  43.0008 242.7744 0001505 269.0032  91.0647 15.27619858 21822","category":"Starlink"}]}