{
  "norad_id": 66503,
  "name": "STARLINK-35917",
  "history": [
    {
      "epoch": "2026-03-28T19:46:43.612896Z",
      "apogee_km": 483.96240860028684,
      "perigee_km": 481.897090287368,
      "latitude_deg": -1.2396451154465133e-05,
      "longitude_deg": 119.85364479648415,
      "height_km": 482.7245860920582,
      "semi_major_axis_km": 6861.066749443827,
      "eccentricity": 0.00015051,
      "inclination_deg": 43.0008,
      "raan_deg": 242.7744,
      "arg_perigee_deg": 269.0032,
      "mean_anomaly_deg": 91.0647,
      "mean_motion_rev_day": 15.27619858
    }
  ]
}